AQUA
1 27424U 02022A   26119.26842454  .00000903  00000+0  18967-3 0  9994
2 27424  98.4248  87.5869 0002068  92.2150  10.7337 14.62079999276129
